0 CZ-4 DEB
1 20913U 90081BW  13281.65571426  .00000428  00000-0  26304-3 0  1493
2 20913 098.8890 313.8333 0105352 136.6929 352.7830 14.08043962178938
0 CZ-4 DEB
1 20913U 90081BW  13283.06218549  .00000576  00000-0  34552-3 0  1504
2 20913 098.8888 315.2186 0105343 132.7955 282.0822 14.08045176179131
0 CZ-4 DEB
1 20913U 90081BW  13286.34544727  .00000394  00000-0  24386-3 0  1522
2 20913 098.8883 318.4527 0105348 123.6571 004.7395 14.08049998179598
0 CZ-4 DEB
1 20913U 90081BW  13287.62301476  .00000315  00000-0  19990-3 0  1535
2 20913 098.8879 319.7112 0105361 120.0981 000.6660 14.08052984179777
0 CZ-4 DEB
1 20913U 90081BW  13289.03197683  .00000183  00000-0  12632-3 0  1545
2 20913 098.8876 321.0988 0105347 116.1761 302.6388 14.08055757179972
0 CZ-4 DEB
1 20913U 90081BW  13290.60771469  .00000119  00000-0  90428-4 0  1550
2 20913 098.8873 322.6507 0105342 111.7900 010.0082 14.08056906180198
0 CZ-4 DEB
1 20913U 90081BW  13292.08810528  .00000175  00000-0  12150-3 0  1562
2 20913 098.8871 324.1086 0105325 107.6684 314.0781 14.08056856180400
0 CZ-4 DEB
1 20913U 90081BW  13293.79946096  .00000359  00000-0  22448-3 0  1577
2 20913 098.8871 325.7937 0105253 102.9219 348.8934 14.08056425180647
0 CZ-4 DEB
1 20913U 90081BW  13295.07122057  .00000504  00000-0  30512-3 0  1587
2 20913 098.8871 327.0459 0105199 099.3853 315.4168 14.08056375180826
